[
  {
    "COMMENT": "GENERATED VIA SPACETRACK.ORG API",
    "ORIGINATOR": "18 SPCS",
    "NORAD_CAT_ID": "26997",
    "OBJECT_NAME": "JASON",
    "OBJECT_TYPE": "PAYLOAD",
    "CLASSIFICATION_TYPE": "U",
    "INTLDES": "01055A",
    "EPOCH": "2023-08-02 03:34:13",
    "EPOCH_MICROSECONDS": "55808",
    "MEAN_MOTION": "12.84024054",
    "ECCENTRICITY": "0.0006551",
    "INCLINATION": "66.0401",
    "RA_OF_ASC_NODE": "107.202",
    "ARG_OF_PERICENTER": "268.1786",
    "MEAN_ANOMALY": "208.5918",
    "EPHEMERIS_TYPE": "0",
    "ELEMENT_SET_NO": "999",
    "REV_AT_EPOCH": "1405",
    "BSTAR": "0.00013959",
    "MEAN_MOTION_DOT": "-0.00000028",
    "MEAN_MOTION_DDOT": "0",
    "FILE": "3969471",
    "TLE_LINE0": "0 JASON",
    "TLE_LINE1": "1 26997U 01055A   23214.14876222 -.00000028  00000-0  13959-3 0  9999",
    "TLE_LINE2": "2 26997  66.0401 107.2020 0006551 268.1786 208.5918 12.84024054 14052",
    "OBJECT_ID": "2001-055A",
    "OBJECT_NUMBER": "26997",
    "SEMIMAJOR_AXIS": "7703.470",
    "PERIOD": "112.147",
    "APOGEE": "1330.382",
    "PERIGEE": "1320.289",
    "DECAYED": "0"
  },
  {
    "COMMENT": "GENERATED VIA SPACETRACK.ORG API",
    "ORIGINATOR": "18 SPCS",
    "NORAD_CAT_ID": "26997",
    "OBJECT_NAME": "JASON",
    "OBJECT_TYPE": "PAYLOAD",
    "CLASSIFICATION_TYPE": "U",
    "INTLDES": "01055A",
    "EPOCH": "2023-08-05 02:33:46",
    "EPOCH_MICROSECONDS": "409760",
    "MEAN_MOTION": "12.84024351",
    "ECCENTRICITY": "0.0006496",
    "INCLINATION": "66.0401",
    "RA_OF_ASC_NODE": "101.0233",
    "ARG_OF_PERICENTER": "268.2584",
    "MEAN_ANOMALY": "200.5999",
    "EPHEMERIS_TYPE": "0",
    "ELEMENT_SET_NO": "999",
    "REV_AT_EPOCH": "1443",
    "BSTAR": "0.00020678",
    "MEAN_MOTION_DOT": "-0.00000012",
    "MEAN_MOTION_DDOT": "0",
    "FILE": "3971790",
    "TLE_LINE0": "0 JASON",
    "TLE_LINE1": "1 26997U 01055A   23217.10678715 -.00000012  00000-0  20678-3 0  9994",
    "TLE_LINE2": "2 26997  66.0401 101.0233 0006496 268.2584 200.5999 12.84024351 14438",
    "OBJECT_ID": "2001-055A",
    "OBJECT_NUMBER": "26997",
    "SEMIMAJOR_AXIS": "7703.469",
    "PERIOD": "112.147",
    "APOGEE": "1330.338",
    "PERIGEE": "1320.330",
    "DECAYED": "0"
  },
  {
    "COMMENT": "GENERATED VIA SPACETRACK.ORG API",
    "ORIGINATOR": "18 SPCS",
    "NORAD_CAT_ID": "26997",
    "OBJECT_NAME": "JASON",
    "OBJECT_TYPE": "PAYLOAD",
    "CLASSIFICATION_TYPE": "U",
    "INTLDES": "01055A",
    "EPOCH": "2023-08-07 09:06:25",
    "EPOCH_MICROSECONDS": "369920",
    "MEAN_MOTION": "12.8402451",
    "ECCENTRICITY": "0.0006473",
    "INCLINATION": "66.04",
    "RA_OF_ASC_NODE": "96.2761",
    "ARG_OF_PERICENTER": "268.432",
    "MEAN_ANOMALY": "264.7982",
    "EPHEMERIS_TYPE": "0",
    "ELEMENT_SET_NO": "999",
    "REV_AT_EPOCH": "1472",
    "BSTAR": "0.00012447",
    "MEAN_MOTION_DOT": "-0.00000032",
    "MEAN_MOTION_DDOT": "0",
    "FILE": "3973942",
    "TLE_LINE0": "0 JASON",
    "TLE_LINE1": "1 26997U 01055A   23219.37946030 -.00000032  00000-0  12447-3 0  9990",
    "TLE_LINE2": "2 26997  66.0400  96.2761 0006473 268.4320 264.7982 12.84024510 14726",
    "OBJECT_ID": "2001-055A",
    "OBJECT_NUMBER": "26997",
    "SEMIMAJOR_AXIS": "7703.468",
    "PERIOD": "112.147",
    "APOGEE": "1330.320",
    "PERIGEE": "1320.347",
    "DECAYED": "0"
  },
  {
    "COMMENT": "GENERATED VIA SPACETRACK.ORG API",
    "ORIGINATOR": "18 SPCS",
    "NORAD_CAT_ID": "26997",
    "OBJECT_NAME": "JASON",
    "OBJECT_TYPE": "PAYLOAD",
    "CLASSIFICATION_TYPE": "U",
    "INTLDES": "01055A",
    "EPOCH": "2023-08-09 09:42:16",
    "EPOCH_MICROSECONDS": "850880",
    "MEAN_MOTION": "12.84024704",
    "ECCENTRICITY": "0.0006466",
    "INCLINATION": "66.0398",
    "RA_OF_ASC_NODE": "92.0463",
    "ARG_OF_PERICENTER": "268.5759",
    "MEAN_ANOMALY": "263.8185",
    "EPHEMERIS_TYPE": "0",
    "ELEMENT_SET_NO": "999",
    "REV_AT_EPOCH": "1498",
    "BSTAR": "0.00010763",
    "MEAN_MOTION_DOT": "-0.00000036",
    "MEAN_MOTION_DDOT": "0",
    "FILE": "3975725",
    "TLE_LINE0": "0 JASON",
    "TLE_LINE1": "1 26997U 01055A   23221.40436170 -.00000036  00000-0  10763-3 0  9999",
    "TLE_LINE2": "2 26997  66.0398  92.0463 0006466 268.5759 263.8185 12.84024704 14982",
    "OBJECT_ID": "2001-055A",
    "OBJECT_NUMBER": "26997",
    "SEMIMAJOR_AXIS": "7703.468",
    "PERIOD": "112.147",
    "APOGEE": "1330.314",
    "PERIGEE": "1320.351",
    "DECAYED": "0"
  },
  {
    "COMMENT": "GENERATED VIA SPACETRACK.ORG API",
    "ORIGINATOR": "18 SPCS",
    "NORAD_CAT_ID": "26997",
    "OBJECT_NAME": "JASON",
    "OBJECT_TYPE": "PAYLOAD",
    "CLASSIFICATION_TYPE": "U",
    "INTLDES": "01055A",
    "EPOCH": "2023-08-11 19:07:40",
    "EPOCH_MICROSECONDS": "761984",
    "MEAN_MOTION": "12.84024869",
    "ECCENTRICITY": "0.0006447",
    "INCLINATION": "66.0396",
    "RA_OF_ASC_NODE": "87.0481",
    "ARG_OF_PERICENTER": "268.6844",
    "MEAN_ANOMALY": "162.5654",
    "EPHEMERIS_TYPE": "0",
    "ELEMENT_SET_NO": "999",
    "REV_AT_EPOCH": "1529",
    "BSTAR": "0.00014441",
    "MEAN_MOTION_DOT": "-0.00000027",
    "MEAN_MOTION_DDOT": "0",
    "FILE": "3977847",
    "TLE_LINE0": "0 JASON",
    "TLE_LINE1": "1 26997U 01055A   23223.79699956 -.00000027  00000-0  14441-3 0  9993",
    "TLE_LINE2": "2 26997  66.0396  87.0481 0006447 268.6844 162.5654 12.84024869 15292",
    "OBJECT_ID": "2001-055A",
    "OBJECT_NUMBER": "26997",
    "SEMIMAJOR_AXIS": "7703.467",
    "PERIOD": "112.147",
    "APOGEE": "1330.298",
    "PERIGEE": "1320.365",
    "DECAYED": "0"
  },
  {
    "COMMENT": "GENERATED VIA SPACETRACK.ORG API",
    "ORIGINATOR": "18 SPCS",
    "NORAD_CAT_ID": "26997",
    "OBJECT_NAME": "JASON",
    "OBJECT_TYPE": "PAYLOAD",
    "CLASSIFICATION_TYPE": "U",
    "INTLDES": "01055A",
    "EPOCH": "2023-08-14 01:33:11",
    "EPOCH_MICROSECONDS": "668032",
    "MEAN_MOTION": "12.84025152",
    "ECCENTRICITY": "0.0006422",
    "INCLINATION": "66.0396",
    "RA_OF_ASC_NODE": "82.311",
    "ARG_OF_PERICENTER": "268.6839",
    "MEAN_ANOMALY": "204.0428",
    "EPHEMERIS_TYPE": "0",
    "ELEMENT_SET_NO": "999",
    "REV_AT_EPOCH": "1558",
    "BSTAR": "0.00024832",
    "MEAN_MOTION_DOT": "-0.00000002",
    "MEAN_MOTION_DDOT": "0",
    "FILE": "3979678",
    "TLE_LINE0": "0 JASON",
    "TLE_LINE1": "1 26997U 01055A   23226.06471838 -.00000002  00000-0  24832-3 0  9991",
    "TLE_LINE2": "2 26997  66.0396  82.3110 0006422 268.6839 204.0428 12.84025152 15585",
    "OBJECT_ID": "2001-055A",
    "OBJECT_NUMBER": "26997",
    "SEMIMAJOR_AXIS": "7703.466",
    "PERIOD": "112.147",
    "APOGEE": "1330.278",
    "PERIGEE": "1320.384",
    "DECAYED": "0"
  },
  {
    "COMMENT": "GENERATED VIA SPACETRACK.ORG API",
    "ORIGINATOR": "18 SPCS",
    "NORAD_CAT_ID": "26997",
    "OBJECT_NAME": "JASON",
    "OBJECT_TYPE": "PAYLOAD",
    "CLASSIFICATION_TYPE": "U",
    "INTLDES": "01055A",
    "EPOCH": "2023-08-16 20:19:33",
    "EPOCH_MICROSECONDS": "162240",
    "MEAN_MOTION": "12.84025448",
    "ECCENTRICITY": "0.0006416",
    "INCLINATION": "66.0395",
    "RA_OF_ASC_NODE": "76.4991",
    "ARG_OF_PERICENTER": "268.8481",
    "MEAN_ANOMALY": "103.2775",
    "EPHEMERIS_TYPE": "0",
    "ELEMENT_SET_NO": "999",
    "REV_AT_EPOCH": "1594",
    "BSTAR": "0.00024828",
    "MEAN_MOTION_DOT": "-0.00000002",
    "MEAN_MOTION_DDOT": "0",
    "FILE": "3982290",
    "TLE_LINE0": "0 JASON",
    "TLE_LINE1": "1 26997U 01055A   23228.84691160 -.00000002  00000-0  24828-3 0  9996",
    "TLE_LINE2": "2 26997  66.0395  76.4991 0006416 268.8481 103.2775 12.84025448 15946",
    "OBJECT_ID": "2001-055A",
    "OBJECT_NUMBER": "26997",
    "SEMIMAJOR_AXIS": "7703.465",
    "PERIOD": "112.147",
    "APOGEE": "1330.272",
    "PERIGEE": "1320.387",
    "DECAYED": "0"
  },
  {
    "COMMENT": "GENERATED VIA SPACETRACK.ORG API",
    "ORIGINATOR": "18 SPCS",
    "NORAD_CAT_ID": "26997",
    "OBJECT_NAME": "JASON",
    "OBJECT_TYPE": "PAYLOAD",
    "CLASSIFICATION_TYPE": "U",
    "INTLDES": "01055A",
    "EPOCH": "2023-08-18 20:55:28",
    "EPOCH_MICROSECONDS": "155360",
    "MEAN_MOTION": "12.84025597",
    "ECCENTRICITY": "0.0006407",
    "INCLINATION": "66.0396",
    "RA_OF_ASC_NODE": "72.269",
    "ARG_OF_PERICENTER": "268.854",
    "MEAN_ANOMALY": "102.6299",
    "EPHEMERIS_TYPE": "0",
    "ELEMENT_SET_NO": "999",
    "REV_AT_EPOCH": "1620",
    "BSTAR": "0.00018348",
    "MEAN_MOTION_DOT": "-0.00000017",
    "MEAN_MOTION_DDOT": "0",
    "FILE": "3983732",
    "TLE_LINE0": "0 JASON",
    "TLE_LINE1": "1 26997U 01055A   23230.87185365 -.00000017  00000-0  18348-3 0  9993",
    "TLE_LINE2": "2 26997  66.0396  72.2690 0006407 268.8540 102.6299 12.84025597 16202",
    "OBJECT_ID": "2001-055A",
    "OBJECT_NUMBER": "26997",
    "SEMIMAJOR_AXIS": "7703.464",
    "PERIOD": "112.147",
    "APOGEE": "1330.265",
    "PERIGEE": "1320.393",
    "DECAYED": "0"
  },
  {
    "COMMENT": "GENERATED VIA SPACETRACK.ORG API",
    "ORIGINATOR": "18 SPCS",
    "NORAD_CAT_ID": "26997",
    "OBJECT_NAME": "JASON",
    "OBJECT_TYPE": "PAYLOAD",
    "CLASSIFICATION_TYPE": "U",
    "INTLDES": "01055A",
    "EPOCH": "2023-08-20 21:59:07",
    "EPOCH_MICROSECONDS": "249632",
    "MEAN_MOTION": "12.84025771",
    "ECCENTRICITY": "0.0006403",
    "INCLINATION": "66.0396",
    "RA_OF_ASC_NODE": "67.9986",
    "ARG_OF_PERICENTER": "268.9753",
    "MEAN_ANOMALY": "190.8908",
    "EPHEMERIS_TYPE": "0",
    "ELEMENT_SET_NO": "999",
    "REV_AT_EPOCH": "1646",
    "BSTAR": "0.00013255",
    "MEAN_MOTION_DOT": "-0.0000003",
    "MEAN_MOTION_DDOT": "0",
    "FILE": "3985796",
    "TLE_LINE0": "0 JASON",
    "TLE_LINE1": "1 26997U 01055A   23232.91605613 -.00000030  00000-0  13255-3 0  9990",
    "TLE_LINE2": "2 26997  66.0396  67.9986 0006403 268.9753 190.8908 12.84025771 16462",
    "OBJECT_ID": "2001-055A",
    "OBJECT_NUMBER": "26997",
    "SEMIMAJOR_AXIS": "7703.463",
    "PERIOD": "112.147",
    "APOGEE": "1330.261",
    "PERIGEE": "1320.396",
    "DECAYED": "0"
  }
]